OBJECT_NAME,OBJECT_ID,EPOCH,MEAN_MOTION,ECCENTRICITY,INCLINATION,RA_OF_ASC_NODE,ARG_OF_PERICENTER,MEAN_ANOMALY,EPHEMERIS_TYPE,CLASSIFICATION_TYPE,NORAD_CAT_ID,ELEMENT_SET_NO,REV_AT_EPOCH,BSTAR,MEAN_MOTION_DOT,MEAN_MOTION_DDOT
STARLINK-37438,2026-133U,2026-07-05T06:00:04.999968,15.49350043,.00009886,53.1592,231.9394,50.0169,134.4610,0,U,69526,999,482,-.14902405E-2,-.82577E-3,0
STARLINK-37484,2026-133V,2026-07-05T06:00:04.999968,15.62237466,.00013942,53.1595,231.3293,77.3931,47.0676,0,U,69527,999,482,-.33363053E-1,-.2593225E-1,0
STARLINK-37523,2026-133W,2026-07-05T06:00:04.999968,15.51608284,.00011238,53.1602,231.7512,85.9488,190.5957,0,U,69528,999,482,-.47152961E-1,-.2522043E-1,0
STARLINK-37369,2026-133X,2026-07-05T06:00:04.999968,15.52404855,.00005754,53.1602,231.7119,98.9558,196.4159,0,U,69529,999,482,-.55406951E-1,-.297737E-1,0
STARLINK-37670,2026-133Y,2026-07-05T06:00:04.999968,15.49268992,.00007369,53.1596,231.8749,74.8214,139.5263,0,U,69530,999,482,.71387183E-3,.39399E-3,0
STARLINK-37897,2026-133Z,2026-07-05T06:00:04.999968,15.59260008,.00014463,53.1593,231.2701,75.1119,76.4477,0,U,69531,999,477,-.36422277E-1,-.2530976E-1,0
STARLINK-37933,2026-133AA,2026-07-05T06:00:04.999968,15.50849618,.00008915,53.1599,231.5419,85.6140,291.5515,0,U,69532,999,477,-.14611296E-1,-.788954E-2,0
STARLINK-37890,2026-133AB,2026-07-05T06:00:04.999968,15.52538888,.00007538,53.1595,231.3942,105.4960,344.0325,0,U,69533,999,477,-.40228356E-1,-.2215666E-1,0
STARLINK-37407,2026-133AC,2026-07-05T06:00:04.999968,15.54899640,.0001005,53.1591,231.2778,63.4627,82.1977,0,U,69534,999,482,-.42206884E-1,-.2543753E-1,0
STARLINK-37888,2026-133AD,2026-07-05T06:00:04.999968,15.52112636,.00012974,53.1592,231.2793,71.6718,72.4691,0,U,69535,999,477,-.47954733E-1,-.2601736E-1,0
STARLINK-37889,2026-133AE,2026-07-05T06:00:04.999968,15.49260580,.00011268,53.1594,232.1821,88.7634,338.7573,0,U,69536,999,477,.59778526E-3,.32881E-3,0
ZHUQUE-2E R/B,2026-128C,2026-07-04T14:00:42.594912,15.64521262,.00666843,54.5270,221.6337,32.2241,328.2841,0,U,69537,999,394,.75947823E-3,.83955E-3,0
2026-134A,2026-134A,2026-07-05T06:54:30.316896,15.09391594,.00153003,97.6994,256.4622,205.2291,154.8192,0,U,69538,999,304,.53466397E-3,.8505E-4,0
2026-134B,2026-134B,2026-07-05T03:40:35.760288,15.09546534,.00153627,97.6972,256.3257,208.3183,151.7212,0,U,69539,999,301,.5567519E-3,.8897E-4,0
2026-134C,2026-134C,2026-07-05T06:50:53.871936,15.09580781,.00148216,97.6977,256.4608,208.9368,151.1040,0,U,69540,999,303,.54537485E-3,.872E-4,0
2026-134D,2026-134D,2026-07-05T03:38:54.204000,15.09636636,.00158533,97.7016,256.3381,209.1699,150.8646,0,U,69541,999,301,.57234825E-3,.9173E-4,0
2026-134E,2026-134E,2026-07-05T06:49:22.588608,15.09660330,.00156017,97.7035,256.4765,209.3821,150.6532,0,U,69542,999,303,.5531708E-3,.8868E-4,0
2026-134F,2026-134F,2026-07-05T06:48:29.846592,15.09705811,.00148957,97.6988,256.4657,211.1038,148.9310,0,U,69543,999,303,.53919691E-3,.8651E-4,0
2026-134G,2026-134G,2026-07-05T03:36:00.885600,15.09789178,.00153472,97.7033,256.3448,212.4133,147.6154,0,U,69544,999,301,.58338086E-3,.9389E-4,0
2026-134H,2026-134H,2026-07-05T03:34:45.608736,15.09856093,.00151984,97.7018,256.3424,213.7139,146.3124,0,U,69545,999,300,.58911389E-3,.9499E-4,0
STARLINK-37880,2026-135A,2026-07-05T01:36:41.151744,15.80888935,.00016822,97.2838,214.0967,89.7513,270.3948,0,U,69546,999,308,.12083938E-2,.238558E-2,0
STARLINK-37881,2026-135B,2026-07-04T21:02:22.521120,15.80727790,.00011569,97.2840,213.8970,134.1617,225.9746,0,U,69547,999,305,.19920628E-2,.397771E-2,0
STARLINK-37265,2026-135C,2026-07-05T04:37:12.281664,15.80892195,.00011562,97.2847,214.2344,47.0921,313.0444,0,U,69548,999,310,.1204692E-2,.237841E-2,0
STARLINK-37871,2026-135D,2026-07-05T03:04:42.346560,15.80840984,.00006594,97.2840,214.1672,125.0269,235.1061,0,U,69549,999,309,.1602645E-2,.318701E-2,0
STARLINK-37865,2026-135E,2026-07-05T06:04:55.592544,15.80849184,.0001188,97.2846,214.3025,125.8460,234.2918,0,U,69550,999,311,.12550551E-2,.247583E-2,0
STARLINK-37862,2026-135F,2026-07-05T06:00:53.955936,15.80901810,.00015546,97.2838,214.3069,334.8188,25.3004,0,U,69551,999,311,.14548701E-2,.2891E-2,0
STARLINK-37861,2026-135G,2026-07-05T05:58:09.520320,15.80922100,.00010625,97.2841,214.3096,55.3574,304.7795,0,U,69552,999,311,.16817227E-2,.336354E-2,0
STARLINK-37859,2026-135H,2026-07-05T01:22:57.402912,15.82051117,.00042632,97.2835,214.1076,231.1445,128.9444,0,U,69553,999,308,.3995815E-2,.898345E-2,0
STARLINK-37860,2026-135J,2026-07-05T01:22:57.157536,15.81039595,.00011285,97.2828,214.1110,139.2123,220.9230,0,U,69554,999,308,.25795397E-2,.530647E-2,0
STARLINK-37858,2026-135K,2026-07-04T01:01:52.518144,15.80969658,.0001544,97.2826,213.0416,124.8272,235.3142,0,U,69555,999,292,.15434E-2,.308347E-2,0
