STARLINK-37438          
1 69526U 26133U   26186.25005787 -.00082577  00000+0 -14902-2 0  9998
2 69526  53.1592 231.9394 0000988  50.0169 134.4610 15.49350043  4829
STARLINK-37484          
1 69527U 26133V   26186.25005787 -.02593225  00000+0 -33363-1 0  9999
2 69527  53.1595 231.3293 0001394  77.3931  47.0676 15.62237466  4825
STARLINK-37523          
1 69528U 26133W   26186.25005787 -.02522043  00000+0 -47153-1 0  9992
2 69528  53.1602 231.7512 0001123  85.9488 190.5957 15.51608284  4829
STARLINK-37369          
1 69529U 26133X   26186.25005787 -.02977370  00000+0 -55407-1 0  9991
2 69529  53.1602 231.7119 0000575  98.9558 196.4159 15.52404855  4823
STARLINK-37670          
1 69530U 26133Y   26186.25005787  .00039399  00000+0  71387-3 0  9996
2 69530  53.1596 231.8749 0000736  74.8214 139.5263 15.49268992  4828
STARLINK-37897          
1 69531U 26133Z   26186.25005787 -.02530976  00000+0 -36422-1 0  9997
2 69531  53.1593 231.2701 0001446  75.1119  76.4477 15.59260008  4776
STARLINK-37933          
1 69532U 26133AA  26186.25005787 -.00788954  00000+0 -14611-1 0  9993
2 69532  53.1599 231.5419 0000891  85.6140 291.5515 15.50849618  4779
STARLINK-37890          
1 69533U 26133AB  26186.25005787 -.02215666  00000+0 -40228-1 0  9994
2 69533  53.1595 231.3942 0000753 105.4960 344.0325 15.52538888  4772
STARLINK-37407          
1 69534U 26133AC  26186.25005787 -.02543753  00000+0 -42207-1 0  9995
2 69534  53.1591 231.2778 0001005  63.4627  82.1977 15.54899640  4826
STARLINK-37888          
1 69535U 26133AD  26186.25005787 -.02601736  00000+0 -47955-1 0  9997
2 69535  53.1592 231.2793 0001297  71.6718  72.4691 15.52112636  4770
STARLINK-37889          
1 69536U 26133AE  26186.25005787  .00032881  00000+0  59779-3 0  9992
2 69536  53.1594 232.1821 0001126  88.7634 338.7573 15.49260580  4777
ZHUQUE-2E R/B           
1 69537U 26128C   26185.58382633  .00083955  00000+0  75948-3 0  9994
2 69537  54.5270 221.6337 0066684  32.2241 328.2841 15.64521262  3941
2026-134A               
1 69538U 26134A   26186.28785089  .00008505  00000+0  53466-3 0  9991
2 69538  97.6994 256.4622 0015300 205.2291 154.8192 15.09391594  3047
2026-134B               
1 69539U 26134B   26186.15319167  .00008897  00000+0  55675-3 0  9996
2 69539  97.6972 256.3257 0015362 208.3183 151.7212 15.09546534  3011
2026-134C               
1 69540U 26134C   26186.28534574  .00008720  00000+0  54537-3 0  9994
2 69540  97.6977 256.4608 0014821 208.9368 151.1040 15.09580781  3036
2026-134D               
1 69541U 26134D   26186.15201625  .00009173  00000+0  57235-3 0  9990
2 69541  97.7016 256.3381 0015853 209.1699 150.8646 15.09636636  3012
2026-134E               
1 69542U 26134E   26186.28428922  .00008868  00000+0  55317-3 0  9995
2 69542  97.7035 256.4765 0015601 209.3821 150.6532 15.09660330  3033
2026-134F               
1 69543U 26134F   26186.28367878  .00008651  00000+0  53920-3 0  9996
2 69543  97.6988 256.4657 0014895 211.1038 148.9310 15.09705811  3033
2026-134G               
1 69544U 26134G   26186.15001025  .00009389  00000+0  58338-3 0  9999
2 69544  97.7033 256.3448 0015347 212.4133 147.6154 15.09789178  3014
2026-134H               
1 69545U 26134H   26186.14913899  .00009499  00000+0  58911-3 0  9999
2 69545  97.7018 256.3424 0015198 213.7139 146.3124 15.09856093  3009
STARLINK-37880          
1 69546U 26135A   26186.06714296  .00238558  00000+0  12084-2 0  9992
2 69546  97.2838 214.0967 0001682  89.7513 270.3948 15.80888935  3087
STARLINK-37881          
1 69547U 26135B   26185.87664955  .00397771  00000+0  19921-2 0  9997
2 69547  97.2840 213.8970 0001156 134.1617 225.9746 15.80727790  3058
STARLINK-37265          
1 69548U 26135C   26186.19250326  .00237841  00000+0  12047-2 0  9990
2 69548  97.2847 214.2344 0001156  47.0921 313.0444 15.80892195  3108
STARLINK-37871          
1 69549U 26135D   26186.12826790  .00318701  00000+0  16026-2 0  9994
2 69549  97.2840 214.1672 0000659 125.0269 235.1061 15.80840984  3090
STARLINK-37865          
1 69550U 26135E   26186.25342121  .00247583  00000+0  12551-2 0  9999
2 69550  97.2846 214.3025 0001188 125.8460 234.2918 15.80849184  3116
STARLINK-37862          
1 69551U 26135F   26186.25062449  .00289100  00000+0  14549-2 0  9992
2 69551  97.2838 214.3069 0001554 334.8188  25.3004 15.80901810  3112
STARLINK-37861          
1 69552U 26135G   26186.24872130  .00336354  00000+0  16817-2 0  9992
2 69552  97.2841 214.3096 0001062  55.3574 304.7795 15.80922100  3111
STARLINK-37859          
1 69553U 26135H   26186.05760883  .00898345  00000+0  39958-2 0  9997
2 69553  97.2835 214.1076 0004263 231.1445 128.9444 15.82051117  3084
STARLINK-37860          
1 69554U 26135J   26186.05760599  .00530647  00000+0  25795-2 0  9994
2 69554  97.2828 214.1110 0001128 139.2123 220.9230 15.81039595  3085
STARLINK-37858          
1 69555U 26135K   26185.04296896  .00308347  00000+0  15434-2 0  9996
2 69555  97.2826 213.0416 0001544 124.8272 235.3142 15.80969658  2923
